[{"OBJECT_NAME":"STARLINK-2450","OBJECT_ID":"2021-027X","EPOCH":"2026-03-09T13:54:55.362816","MEAN_MOTION":15.30184924,"ECCENTRICITY":0.0001451,"INCLINATION":53.1618,"RA_OF_ASC_NODE":165.7996,"ARG_OF_PERICENTER":69.6193,"MEAN_ANOMALY":290.4964,"EPHEMERIS_TYPE":0,"CLASSIFICATION_TYPE":"U","NORAD_CAT_ID":48113,"ELEMENT_SET_NO":999,"REV_AT_EPOCH":27248,"BSTAR":-3.7549e-6,"MEAN_MOTION_DOT":-4.7e-6,"MEAN_MOTION_DDOT":0},{"OBJECT_NAME":"HERMES-3","OBJECT_ID":"2025-052BR","EPOCH":"2026-03-09T22:30:01.073952","MEAN_MOTION":15.30039786,"ECCENTRICITY":0.00079928,"INCLINATION":97.3987,"RA_OF_ASC_NODE":324.6131,"ARG_OF_PERICENTER":112.9583,"MEAN_ANOMALY":247.2502,"EPHEMERIS_TYPE":0,"CLASSIFICATION_TYPE":"U","NORAD_CAT_ID":63835,"ELEMENT_SET_NO":999,"REV_AT_EPOCH":5486,"BSTAR":0.0006995793,"MEAN_MOTION_DOT":0.00020316,"MEAN_MOTION_DDOT":0}]
